{"type":"FeatureCollection","features":[{"type":"Feature","geometry":{"type":"LineString","coordinates":[[3.757324,51.11042],[3.779297,51.11042],[3.779297,51.09662],[3.757324,51.09662],[3.757324,51.11042]]},"properties":{"id":"89743531","zoom":"14"}},{"type":"Feature","geometry":{"type":"LineString","coordinates":[[3.7616,51.0969],[3.762569,51.09756]]},"properties":{"name":"Gentstraat","highway":"residential","maxspeed":"30","vertex1":18214,"vertex2":17981}},{"type":"Feature","geometry":{"type":"LineString","coordinates":[[3.7616,51.0969],[3.760904,51.09643],[3.76052,51.09604],[3.760331,51.0959],[3.759542,51.09551],[3.75898,51.09526]]},"properties":{"name":"Gentstraat","highway":"residential","maxspeed":"30","vertex1":18214,"vertex2":18216}},{"type":"Feature","geometry":{"type":"LineString","coordinates":[[3.7616,51.0969],[3.762592,51.09627],[3.762825,51.09612],[3.762908,51.09602],[3.76297,51.09592],[3.762992,51.09582],[3.762954,51.09563],[3.762859,51.09523],[3.762848,51.09509],[3.762859,51.09495],[3.762919,51.09474]]},"properties":{"name":"Christiaan Van Der Heydenlaan","highway":"residential","vertex1":18214,"vertex2":18234}},{"type":"Feature","geometry":{"type":"LineString","coordinates":[[3.75898,51.09526],[3.758687,51.09552]]},"properties":{"name":"Kleemstraat","highway":"residential","vertex1":18216,"vertex2":18231}},{"type":"Feature","geometry":{"type":"LineString","coordinates":[[3.767054,51.09707],[3.766926,51.09697],[3.766775,51.09686],[3.766573,51.09672]]},"properties":{"name":"Gentstraat","maxspeed":"30","highway":"cycleway","vertex1":18212,"vertex2":18210}},{"type":"Feature","geometry":{"type":"LineString","coordinates":[[3.766573,51.09672],[3.766314,51.09661],[3.766056,51.09642],[3.765692,51.09624],[3.765351,51.096]]},"properties":{"name":"Gentstraat","maxspeed":"30","highway":"cycleway","vertex1":18210,"vertex2":18223}},{"type":"Feature","geometry":{"type":"LineString","coordinates":[[3.766573,51.09672],[3.766348,51.09685],[3.766203,51.09695],[3.766179,51.09702],[3.766181,51.0971],[3.766335,51.09732],[3.766625,51.09769],[3.766702,51.09782]]},"properties":{"name":"Edmond Ronsestraat","highway":"residential","maxspeed":"30","vertex1":18210,"vertex2":17998}},{"type":"Feature","geometry":{"type":"LineString","coordinates":[[3.766573,51.09672],[3.767,51.09647],[3.767102,51.09642],[3.767203,51.0964],[3.76736,51.09637],[3.767506,51.09639],[3.76767,51.09644],[3.76786,51.09652],[3.768328,51.09672]]},"properties":{"name":"Edmond Ronsestraat","highway":"residential","maxspeed":"30","vertex1":18210,"vertex2":18193}},{"type":"Feature","geometry":{"type":"LineString","coordinates":[[3.765351,51.096],[3.764624,51.09639]]},"properties":{"name":"Domien Geersstraat","highway":"residential","maxspeed":"30","vertex1":18223,"vertex2":18220}},{"type":"Feature","geometry":{"type":"LineString","coordinates":[[3.773362,51.09731],[3.772522,51.09693],[3.771645,51.0965]]},"properties":{"name":"Wolfputstraat","maxspeed":"50","highway":"residential","vertex1":18201,"vertex2":18198}},{"type":"Feature","geometry":{"type":"LineString","coordinates":[[3.773362,51.09731],[3.774736,51.09793]]},"properties":{"name":"Wolfputstraat","maxspeed":"50","highway":"residential","vertex1":18201,"vertex2":18152}},{"type":"Feature","geometry":{"type":"LineString","coordinates":[[3.773362,51.09731],[3.772701,51.09781],[3.77257,51.09792],[3.77255,51.09806]]},"properties":{"highway":"footway","vertex1":18201,"vertex2":18153}},{"type":"Feature","geometry":{"type":"LineString","coordinates":[[3.771645,51.0965],[3.771539,51.09665],[3.771389,51.09684],[3.771088,51.09717],[3.770799,51.0976],[3.770467,51.09798],[3.770274,51.09816],[3.769954,51.09844],[3.769522,51.09879],[3.769387,51.09895],[3.769362,51.09909],[3.769354,51.09937]]},"properties":{"name":"Renaat de Rudderstraat","highway":"residential","maxspeed":"30","vertex1":18198,"vertex2":18159}},{"type":"Feature","geometry":{"type":"LineString","coordinates":[[3.771645,51.0965],[3.770658,51.09602]]},"properties":{"name":"Wolfputstraat","maxspeed":"50","highway":"residential","vertex1":18198,"vertex2":18195}},{"type":"Feature","geometry":{"type":"LineString","coordinates":[[3.778522,51.09672],[3.778462,51.09654],[3.778603,51.09611],[3.778475,51.09597]]},"properties":{"name":"Eksaardserijweg","maxspeed":"50","highway":"tertiary","vertex1":18200,"vertex2":18206}},{"type":"Feature","geometry":{"type":"LineString","coordinates":[[3.778522,51.09672],[3.778671,51.09665],[3.778849,51.0966],[3.779496,51.09631],[3.779724,51.09622],[3.779972,51.09616]]},"properties":{"name":"Drieselstraat","maxspeed":"50","highway":"tertiary","vertex1":18200,"vertex2":19933}},{"type":"Feature","geometry":{"type":"LineString","coordinates":[[3.778522,51.09672],[3.778385,51.09682],[3.778286,51.09692],[3.777428,51.09781]]},"properties":{"name":"Drieselstraat","maxspeed":"50","highway":"tertiary","vertex1":18200,"vertex2":18181}},{"type":"Feature","geometry":{"type":"LineString","coordinates":[[3.778475,51.09597],[3.7788,51.09599],[3.779577,51.09601],[3.779816,51.09604],[3.779874,51.09605],[3.779924,51.09609],[3.779972,51.09616]]},"properties":{"name":"Eksaardserijweg","highway":"residential","maxspeed":"30","vertex1":18206,"vertex2":19933}},{"type":"Feature","geometry":{"type":"LineString","coordinates":[[3.768328,51.09672],[3.768031,51.09702],[3.767897,51.09713],[3.767799,51.09728],[3.767752,51.09738],[3.767752,51.09752],[3.767741,51.09766],[3.767709,51.09777],[3.767548,51.09792],[3.76743,51.09796],[3.767119,51.09805],[3.766896,51.09811]]},"properties":{"name":"Gentstraat","maxspeed":"30","highway":"cycleway","vertex1":18193,"vertex2":18007}},{"type":"Feature","geometry":{"type":"LineString","coordinates":[[3.768328,51.09672],[3.768824,51.09692],[3.769248,51.09711],[3.769386,51.09717]]},"properties":{"name":"Edmond Ronsestraat","highway":"residential","maxspeed":"30","vertex1":18193,"vertex2":18189}},{"type":"Feature","geometry":{"type":"LineString","coordinates":[[3.775315,51.0974],[3.774736,51.09793]]},"properties":{"name":"Muizelstraat","highway":"residential","maxspeed":"30","vertex1":18190,"vertex2":18152}},{"type":"Feature","geometry":{"type":"LineString","coordinates":[[3.775315,51.0974],[3.776356,51.09645],[3.776571,51.09623],[3.776614,51.0961],[3.776648,51.09598],[3.776664,51.09582]]},"properties":{"name":"Muizelstraat","highway":"residential","maxspeed":"30","vertex1":18190,"vertex2":18188}},{"type":"Feature","geometry":{"type":"LineString","coordinates":[[3.775315,51.0974],[3.775629,51.09754]]},"properties":{"name":"Hulsterlostraat","highway":"residential","maxspeed":"30","vertex1":18190,"vertex2":18180}},{"type":"Feature","geometry":{"type":"LineString","coordinates":[[3.769386,51.09717],[3.768569,51.09796],[3.768296,51.0982],[3.768135,51.09836],[3.768074,51.0985]]},"properties":{"name":"Jozef Cardijnlaan","highway":"residential","maxspeed":"30","vertex1":18189,"vertex2":17983}},{"type":"Feature","geometry":{"type":"LineString","coordinates":[[3.769386,51.09717],[3.770056,51.09658],[3.770658,51.09602]]},"properties":{"name":"Jozef Cardijnlaan","highway":"residential","maxspeed":"30","vertex1":18189,"vertex2":18195}},{"type":"Feature","geometry":{"type":"LineString","coordinates":[[3.775528,51.10032],[3.775573,51.10024],[3.775639,51.10009]]},"properties":{"name":"Godelieve Joliestraat","highway":"residential","vertex1":18184,"vertex2":18132}},{"type":"Feature","geometry":{"type":"LineString","coordinates":[[3.775528,51.10032],[3.77585,51.10039]]},"properties":{"name":"Godelieve Joliestraat","highway":"residential","maxspeed":"30","vertex1":18184,"vertex2":18158}},{"type":"Feature","geometry":{"type":"LineString","coordinates":[[3.775528,51.10032],[3.775144,51.10025],[3.77465,51.10017],[3.774307,51.10011]]},"properties":{"name":"Godelieve Joliestraat","highway":"residential","maxspeed":"30","vertex1":18184,"vertex2":18146}},{"type":"Feature","geometry":{"type":"LineString","coordinates":[[3.779054,51.09801],[3.779758,51.09772]]},"properties":{"name":"Schoutstraat","highway":"residential","maxspeed":"30","vertex1":18183,"vertex2":19956}},{"type":"Feature","geometry":{"type":"LineString","coordinates":[[3.779054,51.09801],[3.778878,51.09783],[3.779195,51.09748],[3.77927,51.09748]]},"properties":{"name":"Schoutstraat","highway":"residential","maxspeed":"30","vertex1":18183,"vertex2":18138}},{"type":"Feature","geometry":{"type":"LineString","coordinates":[[3.779054,51.09801],[3.779679,51.09865]]},"properties":{"name":"Schoutstraat","highway":"residential","maxspeed":"30","vertex1":18183,"vertex2":19966}},{"type":"Feature","geometry":{"type":"LineString","coordinates":[[3.779758,51.09772],[3.77927,51.09748]]},"properties":{"name":"Schoutstraat","highway":"residential","maxspeed":"30","vertex1":19956,"vertex2":18138}},{"type":"Feature","geometry":{"type":"LineString","coordinates":[[3.779679,51.09865],[3.779334,51.09879]]},"properties":{"name":"Kamerijkstraat","highway":"residential","maxspeed":"30","vertex1":19966,"vertex2":19960}},{"type":"Feature","geometry":{"type":"LineString","coordinates":[[3.773482,51.1008],[3.773631,51.10076]]},"properties":{"highway":"cycleway","vertex1":18182,"vertex2":18131}},{"type":"Feature","geometry":{"type":"LineString","coordinates":[[3.773482,51.1008],[3.773403,51.10091],[3.773288,51.10112],[3.773176,51.10134],[3.773126,51.10144],[3.773152,51.10149],[3.773674,51.10159],[3.773904,51.10164],[3.773953,51.10167],[3.77395,51.1017],[3.773848,51.10192],[3.773659,51.10228]]},"properties":{"name":"Schoonakker","highway":"residential","maxspeed":"30","vertex1":18182,"vertex2":18157}},{"type":"Feature","geometry":{"type":"LineString","coordinates":[[3.777428,51.09781],[3.777117,51.09812]]},"properties":{"name":"Drieselstraat","maxspeed":"50","highway":"tertiary","vertex1":18181,"vertex2":18162}},{"type":"Feature","geometry":{"type":"LineString","coordinates":[[3.775629,51.09754],[3.775953,51.09768]]},"properties":{"name":"Hulsterlostraat","highway":"residential","maxspeed":"30","vertex1":18180,"vertex2":18130}},{"type":"Feature","geometry":{"type":"LineString","coordinates":[[3.775629,51.09754],[3.775934,51.09752]]},"properties":{"name":"Hulsterlostraat","highway":"residential","maxspeed":"30","vertex1":18180,"vertex2":18178}},{"type":"Feature","geometry":{"type":"LineString","coordinates":[[3.776725,51.09839],[3.777117,51.09812]]},"properties":{"name":"Drieselstraat","maxspeed":"50","highway":"tertiary","vertex1":18179,"vertex2":18162}},{"type":"Feature","geometry":{"type":"LineString","coordinates":[[3.776725,51.09839],[3.776541,51.0985]]},"properties":{"name":"Drieselstraat","bicycle":"no","maxspeed":"30","highway":"tertiary","vertex1":18179,"vertex2":18147}},{"type":"Feature","geometry":{"type":"LineString","coordinates":[[3.776725,51.09839],[3.776762,51.09845],[3.776546,51.09858],[3.77644,51.09863]]},"properties":{"highway":"cycleway","vertex1":18179,"vertex2":18150}},{"type":"Feature","geometry":{"type":"LineString","coordinates":[[3.776725,51.09839],[3.776665,51.09838],[3.776579,51.0984],[3.776325,51.09855]]},"properties":{"highway":"cycleway","vertex1":18179,"vertex2":18176}},{"type":"Feature","geometry":{"type":"LineString","coordinates":[[3.775934,51.09752],[3.775987,51.09753],[3.776063,51.09756],[3.776103,51.09759],[3.776118,51.09762],[3.776103,51.09766],[3.776063,51.09768],[3.776008,51.09769],[3.775953,51.09768]]},"properties":{"name":"Hulsterlostraat","highway":"residential","maxspeed":"30","vertex1":18178,"vertex2":18130}},{"type":"Feature","geometry":{"type":"LineString","coordinates":[[3.776336,51.09867],[3.776271,51.09864]]},"properties":{"name":"Oude Veldstraat","highway":"residential","maxspeed":"30","vertex1":18177,"vertex2":18170}},{"type":"Feature","geometry":{"type":"LineString","coordinates":[[3.776336,51.09867],[3.776375,51.09869],[3.776401,51.0987],[3.776517,51.09876]]},"properties":{"name":"Oude Veldstraat","highway":"residential","maxspeed":"30","vertex1":18177,"vertex2":18175}},{"type":"Feature","geometry":{"type":"LineString","coordinates":[[3.776336,51.09867],[3.77644,51.09863]]},"properties":{"highway":"cycleway","vertex1":18177,"vertex2":18150}},{"type":"Feature","geometry":{"type":"LineString","coordinates":[[3.776336,51.09867],[3.776031,51.0988],[3.775959,51.09878]]},"properties":{"highway":"cycleway","vertex1":18177,"vertex2":18165}},{"type":"Feature","geometry":{"type":"LineString","coordinates":[[3.776325,51.09855],[3.776386,51.09859]]},"properties":{"highway":"footway","vertex1":18176,"vertex2":18161}},{"type":"Feature","geometry":{"type":"LineString","coordinates":[[3.776325,51.09855],[3.776206,51.09861]]},"properties":{"highway":"cycleway","vertex1":18176,"vertex2":18173}},{"type":"Feature","geometry":{"type":"LineString","coordinates":[[3.776517,51.09876],[3.778195,51.09956],[3.779272,51.10011]]},"properties":{"name":"Oude Veldstraat","maxspeed":"50","highway":"residential","vertex1":18175,"vertex2":18172}},{"type":"Feature","geometry":{"type":"LineString","coordinates":[[3.768997,51.10069],[3.768775,51.10062]]},"properties":{"name":"Vendelstraat","highway":"residential","maxspeed":"30","vertex1":18174,"vertex2":18136}},{"type":"Feature","geometry":{"type":"LineString","coordinates":[[3.768997,51.10069],[3.769236,51.10078],[3.769255,51.1008],[3.76922,51.10086],[3.769139,51.10086],[3.768839,51.10075],[3.768704,51.1007]]},"properties":{"name":"Vendelstraat","highway":"residential","maxspeed":"30","vertex1":18174,"vertex2":18148}},{"type":"Feature","geometry":{"type":"LineString","coordinates":[[3.776206,51.09861],[3.77617,51.0986],[3.776139,51.09858],[3.776075,51.09856]]},"properties":{"name":"Wolfputstraat","highway":"residential","maxspeed":"30","vertex1":18173,"vertex2":18171}},{"type":"Feature","geometry":{"type":"LineString","coordinates":[[3.776206,51.09861],[3.776271,51.09864]]},"properties":{"name":"Wolfputstraat","highway":"residential","maxspeed":"30","vertex1":18173,"vertex2":18170}},{"type":"Feature","geometry":{"type":"LineString","coordinates":[[3.776206,51.09861],[3.776087,51.09868],[3.775966,51.09873],[3.775959,51.09878]]},"properties":{"highway":"cycleway","vertex1":18173,"vertex2":18165}},{"type":"Feature","geometry":{"type":"LineString","coordinates":[[3.779272,51.10011],[3.780286,51.0995],[3.780354,51.09947],[3.78041,51.09945],[3.781874,51.09921],[3.782116,51.09918],[3.78229,51.09917],[3.782459,51.09918]]},"properties":{"highway":"track","vertex1":18172,"vertex2":19973}},{"type":"Feature","geometry":{"type":"LineString","coordinates":[[3.779272,51.10011],[3.780078,51.10051],[3.781014,51.10097],[3.781886,51.10144]]},"properties":{"name":"Oude Veldstraat","maxspeed":"50","highway":"residential","vertex1":18172,"vertex2":19949}},{"type":"Feature","geometry":{"type":"LineString","coordinates":[[3.776075,51.09856],[3.775311,51.0982]]},"properties":{"name":"Wolfputstraat","maxspeed":"50","highway":"residential","vertex1":18171,"vertex2":18169}},{"type":"Feature","geometry":{"type":"LineString","coordinates":[[3.776271,51.09864],[3.776054,51.09874]]},"properties":{"name":"Sint-Laurentiuslaan","bicycle":"no","maxspeed":"30","highway":"tertiary","vertex1":18170,"vertex2":18127}},{"type":"Feature","geometry":{"type":"LineString","coordinates":[[3.776271,51.09864],[3.776386,51.09859]]},"properties":{"name":"Drieselstraat","bicycle":"no","maxspeed":"30","highway":"tertiary","vertex1":18170,"vertex2":18161}},{"type":"Feature","geometry":{"type":"LineString","coordinates":[[3.775311,51.0982],[3.775035,51.09807]]},"properties":{"name":"Wolfputstraat","maxspeed":"50","highway":"residential","vertex1":18169,"vertex2":18126}},{"type":"Feature","geometry":{"type":"LineString","coordinates":[[3.76949,51.10007],[3.769585,51.10006],[3.769735,51.1001],[3.769847,51.10014],[3.769773,51.10023],[3.769559,51.10017]]},"properties":{"name":"Cristiaan Brosteauxstraat","highway":"residential","maxspeed":"30","vertex1":18168,"vertex2":18134}},{"type":"Feature","geometry":{"type":"LineString","coordinates":[[3.76949,51.10007],[3.769418,51.10012]]},"properties":{"name":"Cristiaan Brosteauxstraat","highway":"residential","maxspeed":"30","vertex1":18168,"vertex2":18166}},{"type":"Feature","geometry":{"type":"LineString","coordinates":[[3.769098,51.09936],[3.769354,51.09937]]},"properties":{"name":"Sint-Laurentiuslaan","maxspeed":"50","highway":"tertiary","cycleway":"lane","vertex1":18167,"vertex2":18159}},{"type":"Feature","geometry":{"type":"LineString","coordinates":[[3.769098,51.09936],[3.768904,51.09936]]},"properties":{"name":"Sint-Laurentiuslaan","maxspeed":"50","highway":"tertiary","cycleway":"lane","vertex1":18167,"vertex2":18163}},{"type":"Feature","geometry":{"type":"LineString","coordinates":[[3.769098,51.09936],[3.769099,51.09932]]},"properties":{"highway":"footway","vertex1":18167,"vertex2":18128}},{"type":"Feature","geometry":{"type":"LineString","coordinates":[[3.769418,51.10012],[3.769251,51.10006],[3.768965,51.09997],[3.768587,51.09986]]},"properties":{"name":"Cristiaan Brosteauxstraat","highway":"residential","maxspeed":"30","vertex1":18166,"vertex2":18164}},{"type":"Feature","geometry":{"type":"LineString","coordinates":[[3.769418,51.10012],[3.769559,51.10017]]},"properties":{"name":"Cristiaan Brosteauxstraat","highway":"residential","maxspeed":"30","vertex1":18166,"vertex2":18134}},{"type":"Feature","geometry":{"type":"LineString","coordinates":[[3.775959,51.09878],[3.77594,51.09879],[3.775727,51.09887],[3.775202,51.09905]]},"properties":{"name":"Sint-Laurentiuslaan","maxspeed":"50","highway":"tertiary","cycleway":"lane","vertex1":18165,"vertex2":18160}},{"type":"Feature","geometry":{"type":"LineString","coordinates":[[3.775959,51.09878],[3.776054,51.09874]]},"properties":{"name":"Sint-Laurentiuslaan","bicycle":"no","maxspeed":"50","highway":"tertiary","vertex1":18165,"vertex2":18127}},{"type":"Feature","geometry":{"type":"LineString","coordinates":[[3.768587,51.09986],[3.768546,51.0999],[3.768367,51.10011],[3.768128,51.10038]]},"properties":{"name":"Petrus Hostestraat","highway":"residential","maxspeed":"30","vertex1":18164,"vertex2":18018}},{"type":"Feature","geometry":{"type":"LineString","coordinates":[[3.768587,51.09986],[3.768684,51.09973],[3.768728,51.0996],[3.768744,51.09936]]},"properties":{"name":"Petrus Hostestraat","highway":"residential","maxspeed":"30","vertex1":18164,"vertex2":18144}},{"type":"Feature","geometry":{"type":"LineString","coordinates":[[3.768904,51.09936],[3.768744,51.09936]]},"properties":{"name":"Sint-Laurentiuslaan","maxspeed":"50","highway":"tertiary","cycleway":"lane","vertex1":18163,"vertex2":18144}},{"type":"Feature","geometry":{"type":"LineString","coordinates":[[3.777117,51.09812],[3.778556,51.09879],[3.77875,51.09888]]},"properties":{"name":"Kamerijkstraat","highway":"residential","maxspeed":"30","vertex1":18162,"vertex2":18156}},{"type":"Feature","geometry":{"type":"LineString","coordinates":[[3.776386,51.09859],[3.776541,51.0985]]},"properties":{"name":"Drieselstraat","bicycle":"no","maxspeed":"30","highway":"tertiary","vertex1":18161,"vertex2":18147}},{"type":"Feature","geometry":{"type":"LineString","coordinates":[[3.776386,51.09859],[3.77644,51.09863]]},"properties":{"highway":"footway","vertex1":18161,"vertex2":18150}},{"type":"Feature","geometry":{"type":"LineString","coordinates":[[3.775202,51.09905],[3.775436,51.09935],[3.775631,51.09961],[3.775777,51.09981],[3.775716,51.09993],[3.775639,51.10009]]},"properties":{"name":"Godelieve Joliestraat","highway":"residential","maxspeed":"30","vertex1":18160,"vertex2":18132}},{"type":"Feature","geometry":{"type":"LineString","coordinates":[[3.775202,51.09905],[3.774865,51.09914],[3.77435,51.09925]]},"properties":{"name":"Sint-Laurentiuslaan","maxspeed":"50","highway":"tertiary","cycleway":"lane","vertex1":18160,"vertex2":18151}},{"type":"Feature","geometry":{"type":"LineString","coordinates":[[3.769354,51.09937],[3.769612,51.09937],[3.771121,51.09937],[3.771399,51.09937]]},"properties":{"name":"Sint-Laurentiuslaan","maxspeed":"50","highway":"tertiary","cycleway":"lane","vertex1":18159,"vertex2":18155}},{"type":"Feature","geometry":{"type":"LineString","coordinates":[[3.77585,51.10039],[3.775936,51.10049],[3.77604,51.10062],[3.776023,51.1007],[3.775896,51.10094],[3.775803,51.10113]]},"properties":{"name":"Godelieve Joliestraat","highway":"residential","maxspeed":"30","vertex1":18158,"vertex2":18143}},{"type":"Feature","geometry":{"type":"LineString","coordinates":[[3.77585,51.10039],[3.775763,51.10026],[3.775639,51.10009]]},"properties":{"name":"Godelieve Joliestraat","highway":"residential","maxspeed":"30","vertex1":18158,"vertex2":18132}},{"type":"Feature","geometry":{"type":"LineString","coordinates":[[3.773659,51.10228],[3.77403,51.10235],[3.774426,51.10244],[3.774799,51.10251],[3.774943,51.10252],[3.775022,51.10249],[3.7751,51.10229],[3.77523,51.10201],[3.775326,51.10183],[3.775184,51.1018]]},"properties":{"name":"Schoonakker","highway":"residential","maxspeed":"30","vertex1":18157,"vertex2":18139}},{"type":"Feature","geometry":{"type":"LineString","coordinates":[[3.773659,51.10228],[3.773494,51.1026],[3.773313,51.10296]]},"properties":{"name":"Schoonakker","highway":"residential","maxspeed":"30","vertex1":18157,"vertex2":18091}},{"type":"Feature","geometry":{"type":"LineString","coordinates":[[3.77875,51.09888],[3.779288,51.09917]]},"properties":{"name":"Kamerijkstraat","highway":"residential","maxspeed":"30","vertex1":18156,"vertex2":18154}},{"type":"Feature","geometry":{"type":"LineString","coordinates":[[3.77875,51.09888],[3.778913,51.09889],[3.779044,51.09888],[3.779157,51.09885],[3.779334,51.09879]]},"properties":{"name":"Kamerijkstraat","highway":"residential","maxspeed":"30","vertex1":18156,"vertex2":19960}},{"type":"Feature","geometry":{"type":"LineString","coordinates":[[3.779334,51.09879],[3.779248,51.09885],[3.779197,51.09893],[3.779187,51.09901],[3.779218,51.09909],[3.779288,51.09917]]},"properties":{"name":"Kamerijkstraat","highway":"residential","vertex1":19960,"vertex2":18154}},{"type":"Feature","geometry":{"type":"LineString","coordinates":[[3.771399,51.09937],[3.771402,51.09929],[3.771408,51.09898],[3.771434,51.09875],[3.771527,51.09858],[3.771657,51.09848],[3.771957,51.09829],[3.772215,51.09813],[3.772409,51.09808],[3.77255,51.09806]]},"properties":{"name":"Wulverdam","highway":"residential","maxspeed":"30","vertex1":18155,"vertex2":18153}},{"type":"Feature","geometry":{"type":"LineString","coordinates":[[3.771399,51.09937],[3.771628,51.09938],[3.77252,51.09937],[3.772748,51.09937]]},"properties":{"name":"Sint-Laurentiuslaan","maxspeed":"50","highway":"tertiary","cycleway":"lane","vertex1":18155,"vertex2":18140}},{"type":"Feature","geometry":{"type":"LineString","coordinates":[[3.779288,51.09917],[3.779422,51.0993]]},"properties":{"name":"Kamerijkstraat","highway":"residential","maxspeed":"30","vertex1":18154,"vertex2":19971}},{"type":"Feature","geometry":{"type":"LineString","coordinates":[[3.77255,51.09806],[3.772784,51.09808],[3.773105,51.09821],[3.773417,51.09835],[3.773781,51.09854],[3.773985,51.09867],[3.774108,51.09882],[3.774214,51.09901],[3.77435,51.09925]]},"properties":{"name":"Wulverdam","highway":"residential","maxspeed":"30","vertex1":18153,"vertex2":18151}},{"type":"Feature","geometry":{"type":"LineString","coordinates":[[3.774736,51.09793],[3.775035,51.09807]]},"properties":{"name":"Wolfputstraat","maxspeed":"50","highway":"residential","vertex1":18152,"vertex2":18126}},{"type":"Feature","geometry":{"type":"LineString","coordinates":[[3.77435,51.09925],[3.773964,51.0993]]},"properties":{"name":"Sint-Laurentiuslaan","maxspeed":"50","highway":"tertiary","cycleway":"lane","vertex1":18151,"vertex2":18149}},{"type":"Feature","geometry":{"type":"LineString","coordinates":[[3.773964,51.0993],[3.77401,51.09938],[3.774046,51.09948],[3.774125,51.0997],[3.77411,51.09987],[3.773985,51.10016]]},"properties":{"name":"Wolweverspad","highway":"cycleway","vertex1":18149,"vertex2":18137}},{"type":"Feature","geometry":{"type":"LineString","coordinates":[[3.773964,51.0993],[3.773534,51.09934],[3.773116,51.09937],[3.772748,51.09937]]},"properties":{"name":"Sint-Laurentiuslaan","maxspeed":"50","highway":"tertiary","cycleway":"lane","vertex1":18149,"vertex2":18140}},{"type":"Feature","geometry":{"type":"LineString","coordinates":[[3.768704,51.1007],[3.768775,51.10062]]},"properties":{"name":"Vendelstraat","highway":"residential","maxspeed":"30","vertex1":18148,"vertex2":18136}},{"type":"Feature","geometry":{"type":"LineString","coordinates":[[3.769458,51.10286],[3.769468,51.10302],[3.769411,51.10307]]},"properties":{"maxspeed":"30","highway":"track","vertex1":18145,"vertex2":18104}},{"type":"Feature","geometry":{"type":"LineString","coordinates":[[3.768744,51.09936],[3.768261,51.09935],[3.768167,51.09935],[3.768058,51.09935]]},"properties":{"name":"Sint-Laurentiuslaan","maxspeed":"50","highway":"tertiary","cycleway":"lane","vertex1":18144,"vertex2":17999}},{"type":"Feature","geometry":{"type":"LineString","coordinates":[[3.775803,51.10113],[3.775702,51.10135],[3.775594,51.10153],[3.775519,51.10171],[3.775423,51.10176],[3.775184,51.1018]]},"properties":{"highway":"cycleway","vertex1":18143,"vertex2":18139}},{"type":"Feature","geometry":{"type":"LineString","coordinates":[[3.775803,51.10113],[3.775435,51.10106],[3.774946,51.10097],[3.774547,51.1009],[3.774337,51.10086]]},"properties":{"name":"Godelieve Joliestraat","highway":"residential","maxspeed":"30","vertex1":18143,"vertex2":18133}},{"type":"Feature","geometry":{"type":"LineString","coordinates":[[3.770764,51.10228],[3.770501,51.10257],[3.770175,51.10293],[3.769966,51.10315]]},"properties":{"name":"Ooistraat","highway":"residential","maxspeed":"30","vertex1":18142,"vertex2":18107}},{"type":"Feature","geometry":{"type":"LineString","coordinates":[[3.770764,51.10228],[3.772502,51.10283]]},"properties":{"name":"Bredestraat","highway":"tertiary","vertex1":18142,"vertex2":18141}},{"type":"Feature","geometry":{"type":"LineString","coordinates":[[3.770764,51.10228],[3.767164,51.10111]]},"properties":{"name":"Bredestraat","highway":"tertiary","vertex1":18142,"vertex2":18027}},{"type":"Feature","geometry":{"type":"LineString","coordinates":[[3.772502,51.10283],[3.773059,51.10291],[3.773313,51.10296]]},"properties":{"name":"Moststraat","highway":"residential","maxspeed":"30","vertex1":18141,"vertex2":18091}},{"type":"Feature","geometry":{"type":"LineString","coordinates":[[3.772502,51.10283],[3.772967,51.10298]]},"properties":{"name":"Bredestraat","highway":"tertiary","vertex1":18141,"vertex2":18085}},{"type":"Feature","geometry":{"type":"LineString","coordinates":[[3.772748,51.09937],[3.772747,51.09949],[3.77273,51.09967],[3.77273,51.09998],[3.772773,51.10013],[3.772869,51.10019],[3.773138,51.10025],[3.77361,51.10033],[3.773696,51.10036]]},"properties":{"name":"Sint-Laurentiuslaan","highway":"residential","maxspeed":"30","vertex1":18140,"vertex2":18135}},{"type":"Feature","geometry":{"type":"LineString","coordinates":[[3.773985,51.10016],[3.773814,51.10049]]},"properties":{"name":"Wolweverspad","highway":"cycleway","vertex1":18137,"vertex2":18129}},{"type":"Feature","geometry":{"type":"LineString","coordinates":[[3.768775,51.10062],[3.768344,51.10046],[3.768128,51.10038]]},"properties":{"name":"Vendelstraat","highway":"residential","maxspeed":"30","vertex1":18136,"vertex2":18018}},{"type":"Feature","geometry":{"type":"LineString","coordinates":[[3.773696,51.10036],[3.773814,51.10049]]},"properties":{"highway":"cycleway","vertex1":18135,"vertex2":18129}},{"type":"Feature","geometry":{"type":"LineString","coordinates":[[3.774337,51.10086],[3.774197,51.10088],[3.773916,51.10083],[3.773631,51.10076]]},"properties":{"highway":"cycleway","vertex1":18133,"vertex2":18131}},{"type":"Feature","geometry":{"type":"LineString","coordinates":[[3.773631,51.10076],[3.773736,51.10061],[3.773814,51.10049]]},"properties":{"highway":"cycleway","vertex1":18131,"vertex2":18129}},{"type":"Feature","geometry":{"type":"LineString","coordinates":[[3.768593,51.10338],[3.768991,51.10323]]},"properties":{"maxspeed":"30","highway":"track","vertex1":18125,"vertex2":18108}},{"type":"Feature","geometry":{"type":"LineString","coordinates":[[3.768593,51.10338],[3.768508,51.10342],[3.7684,51.10348],[3.768325,51.10355],[3.768218,51.10368],[3.768164,51.10382],[3.767982,51.10366],[3.767885,51.10357],[3.768068,51.10347],[3.768306,51.10334],[3.76859,51.10322],[3.76872,51.1032]]},"properties":{"maxspeed":"30","highway":"track","vertex1":18125,"vertex2":18088}},{"type":"Feature","geometry":{"type":"LineString","coordinates":[[3.77612,51.10599],[3.776163,51.10591],[3.776212,51.10582],[3.776215,51.10578],[3.776201,51.10574],[3.776167,51.1057],[3.776156,51.10569]]},"properties":{"name":"Faltselestraat","highway":"residential","vertex1":18124,"vertex2":18119}},{"type":"Feature","geometry":{"type":"LineString","coordinates":[[3.77612,51.10599],[3.776671,51.10611],[3.776724,51.10603],[3.776749,51.10601]]},"properties":{"name":"Faltselestraat","highway":"residential","vertex1":18124,"vertex2":18111}},{"type":"Feature","geometry":{"type":"LineString","coordinates":[[3.769021,51.10623],[3.768895,51.10625]]},"properties":{"name":"Molzelebilk","highway":"residential","maxspeed":"30","vertex1":18123,"vertex2":18121}},{"type":"Feature","geometry":{"type":"LineString","coordinates":[[3.769021,51.10623],[3.770431,51.10602]]},"properties":{"name":"Molzelebilk","highway":"residential","maxspeed":"30","vertex1":18123,"vertex2":18118}},{"type":"Feature","geometry":{"type":"LineString","coordinates":[[3.769021,51.10623],[3.769208,51.10644],[3.769391,51.10662],[3.769479,51.10675],[3.769576,51.10689],[3.769673,51.10707]]},"properties":{"highway":"track","vertex1":18123,"vertex2":18096}},{"type":"Feature","geometry":{"type":"LineString","coordinates":[[3.771216,51.10595],[3.77119,51.10612],[3.771132,51.1064],[3.771099,51.10668],[3.771052,51.10691],[3.771044,51.1071]]},"properties":{"name":"Schaapscheerderstraat","highway":"residential","maxspeed":"30","vertex1":18122,"vertex2":18120}},{"type":"Feature","geometry":{"type":"LineString","coordinates":[[3.771216,51.10595],[3.771099,51.10594],[3.770969,51.10594],[3.770431,51.10602]]},"properties":{"name":"Molzelebilk","highway":"residential","maxspeed":"30","vertex1":18122,"vertex2":18118}},{"type":"Feature","geometry":{"type":"LineString","coordinates":[[3.771216,51.10595],[3.771581,51.10598],[3.772146,51.10604],[3.772247,51.10603],[3.772335,51.10598],[3.772429,51.10578],[3.772546,51.10556],[3.772639,51.10539]]},"properties":{"name":"Molzelebilk","highway":"residential","maxspeed":"30","vertex1":18122,"vertex2":18084}},{"type":"Feature","geometry":{"type":"LineString","coordinates":[[3.768895,51.10625],[3.768665,51.10629],[3.768588,51.10628],[3.76843,51.10622],[3.768147,51.10612]]},"properties":{"name":"Molzelebilk","highway":"residential","maxspeed":"30","vertex1":18121,"vertex2":18076}},{"type":"Feature","geometry":{"type":"LineString","coordinates":[[3.768895,51.10625],[3.768878,51.10619],[3.768835,51.10609],[3.768674,51.10591],[3.768353,51.10556],[3.768138,51.10543],[3.767644,51.10513]]},"properties":{"name":"Schapenfokkerspad","maxspeed":"30","highway":"track","vertex1":18121,"vertex2":18037}},{"type":"Feature","geometry":{"type":"LineString","coordinates":[[3.771044,51.1071],[3.772952,51.10724]]},"properties":{"name":"Wittewalle","cyclenetwork":"yes","maxspeed":"50","highway":"tertiary","vertex1":18120,"vertex2":18086}},{"type":"Feature","geometry":{"type":"LineString","coordinates":[[3.771044,51.1071],[3.770462,51.10707],[3.769998,51.10706],[3.769673,51.10707]]},"properties":{"name":"Wittewalle","cyclenetwork":"yes","maxspeed":"50","highway":"tertiary","vertex1":18120,"vertex2":18096}},{"type":"Feature","geometry":{"type":"LineString","coordinates":[[3.776156,51.10569],[3.776132,51.10567],[3.776113,51.10564],[3.77611,51.10561],[3.776114,51.1056]]},"properties":{"name":"Faltselestraat","highway":"residential","vertex1":18119,"vertex2":18117}},{"type":"Feature","geometry":{"type":"LineString","coordinates":[[3.776156,51.10569],[3.776132,51.10569]]},"properties":{"name":"Faltselestraat ","highway":"residential","vertex1":18119,"vertex2":18113}},{"type":"Feature","geometry":{"type":"LineString","coordinates":[[3.770431,51.10602],[3.770365,51.10582],[3.770285,51.1056],[3.770223,51.10543]]},"properties":{"name":"Landmanstraat","highway":"residential","maxspeed":"30","vertex1":18118,"vertex2":18090}},{"type":"Feature","geometry":{"type":"LineString","coordinates":[[3.776114,51.1056],[3.776121,51.10559],[3.776152,51.10555]]},"properties":{"name":"Faltselestraat","highway":"residential","vertex1":18117,"vertex2":18115}},{"type":"Feature","geometry":{"type":"LineString","coordinates":[[3.776114,51.1056],[3.77608,51.10559],[3.776041,51.10558],[3.776003,51.10556],[3.77596,51.10556],[3.775928,51.10557],[3.775917,51.10558],[3.775906,51.1056],[3.775896,51.10563],[3.775909,51.10564],[3.775947,51.10567],[3.775974,51.10569],[3.776024,51.1057],[3.776092,51.10569],[3.776132,51.10569]]},"properties":{"name":"Faltselestraat ","highway":"residential","vertex1":18117,"vertex2":18113}},{"type":"Feature","geometry":{"type":"LineString","coordinates":[[3.770176,51.10531],[3.770223,51.10543]]},"properties":{"name":"Landmanstraat","highway":"residential","maxspeed":"30","vertex1":18116,"vertex2":18090}},{"type":"Feature","geometry":{"type":"LineString","coordinates":[[3.770176,51.10531],[3.770089,51.10505],[3.770016,51.10484]]},"properties":{"name":"Landmanstraat","highway":"residential","maxspeed":"30","vertex1":18116,"vertex2":18098}},{"type":"Feature","geometry":{"type":"LineString","coordinates":[[3.770176,51.10531],[3.76988,51.10535],[3.769576,51.1054],[3.769448,51.1054],[3.769372,51.10539],[3.769174,51.1053],[3.768803,51.10512],[3.768632,51.10505],[3.768444,51.10498],[3.768304,51.10499]]},"properties":{"name":"Koestraat","highway":"residential","maxspeed":"30","vertex1":18116,"vertex2":18049}},{"type":"Feature","geometry":{"type":"LineString","coordinates":[[3.776152,51.10555],[3.776829,51.10574],[3.776727,51.1059],[3.7767,51.10595],[3.776703,51.10599],[3.776749,51.10601]]},"properties":{"name":"Faltselestraat","highway":"residential","vertex1":18115,"vertex2":18111}},{"type":"Feature","geometry":{"type":"LineString","coordinates":[[3.776152,51.10555],[3.776057,51.10552]]},"properties":{"name":"Faltselestraat","highway":"residential","vertex1":18115,"vertex2":18109}},{"type":"Feature","geometry":{"type":"LineString","coordinates":[[3.769734,51.10433],[3.769838,51.10442],[3.76992,51.10462],[3.770016,51.10484]]},"properties":{"name":"Landmanstraat","highway":"residential","maxspeed":"30","vertex1":18114,"vertex2":18098}},{"type":"Feature","geometry":{"type":"LineString","coordinates":[[3.769734,51.10433],[3.769853,51.10403],[3.770062,51.1037]]},"properties":{"name":"Wolweverspad","maxspeed":"30","highway":"path","vertex1":18114,"vertex2":18097}},{"type":"Feature","geometry":{"type":"LineString","coordinates":[[3.771326,51.10529],[3.771561,51.10526],[3.771856,51.10524],[3.772296,51.10532],[3.772639,51.10539]]},"properties":{"name":"Molzelehof","highway":"residential","maxspeed":"30","vertex1":18112,"vertex2":18084}},{"type":"Feature","geometry":{"type":"LineString","coordinates":[[3.771326,51.10529],[3.771196,51.1053],[3.771035,51.10531],[3.770709,51.10536],[3.770223,51.10543]]},"properties":{"maxspeed":"30","highway":"cycleway","vertex1":18112,"vertex2":18090}},{"type":"Feature","geometry":{"type":"LineString","coordinates":[[3.776749,51.10601],[3.777553,51.10623],[3.777586,51.10623],[3.777642,51.10623],[3.777677,51.10622],[3.778267,51.10597],[3.778304,51.10596]]},"properties":{"name":"Faltselestraat","highway":"residential","vertex1":18111,"vertex2":18110}},{"type":"Feature","geometry":{"type":"LineString","coordinates":[[3.778304,51.10596],[3.778999,51.10648],[3.780287,51.10742]]},"properties":{"name":"Bredestraat","highway":"tertiary","vertex1":18110,"vertex2":19978}},{"type":"Feature","geometry":{"type":"LineString","coordinates":[[3.778304,51.10596],[3.777065,51.10476],[3.776639,51.10436],[3.77584,51.10392]]},"properties":{"name":"Bredestraat","highway":"tertiary","vertex1":18110,"vertex2":18100}},{"type":"Feature","geometry":{"type":"LineString","coordinates":[[3.780287,51.10742],[3.780615,51.1072],[3.780662,51.10714],[3.78073,51.10702],[3.780818,51.10686],[3.780933,51.10655],[3.78107,51.10617],[3.781186,51.10576],[3.781528,51.10444],[3.781559,51.10405],[3.781567,51.10394],[3.781494,51.10387],[3.781276,51.10378]]},"properties":{"name":"Mostwegel","highway":"residential","maxspeed":"30","vertex1":19978,"vertex2":19977}},{"type":"Feature","geometry":{"type":"LineString","coordinates":[[3.768991,51.10323],[3.769118,51.10319],[3.769324,51.1031],[3.769411,51.10307]]},"properties":{"maxspeed":"30","highway":"track","vertex1":18108,"vertex2":18104}},{"type":"Feature","geometry":{"type":"LineString","coordinates":[[3.768991,51.10323],[3.76872,51.1032]]},"properties":{"maxspeed":"30","highway":"track","vertex1":18108,"vertex2":18088}},{"type":"Feature","geometry":{"type":"LineString","coordinates":[[3.769966,51.10315],[3.770316,51.10322],[3.770655,51.10328],[3.770714,51.10339],[3.770798,51.10344],[3.771135,51.10356],[3.771272,51.10361],[3.771561,51.1037],[3.771957,51.1038],[3.772349,51.10385]]},"properties":{"maxspeed":"30","highway":"track","vertex1":18107,"vertex2":18105}},{"type":"Feature","geometry":{"type":"LineString","coordinates":[[3.769966,51.10315],[3.769839,51.10318],[3.769699,51.10316],[3.769411,51.10307]]},"properties":{"maxspeed":"30","highway":"track","vertex1":18107,"vertex2":18104}},{"type":"Feature","geometry":{"type":"LineString","coordinates":[[3.769966,51.10315],[3.7699,51.10323],[3.769792,51.10334],[3.769698,51.1034],[3.76957,51.10346]]},"properties":{"name":"Ooistraat","highway":"residential","maxspeed":"30","vertex1":18107,"vertex2":18095}},{"type":"Feature","geometry":{"type":"LineString","coordinates":[[3.771367,51.10462],[3.77118,51.10465]]},"properties":{"name":"Elzenhof","highway":"residential","vertex1":18106,"vertex2":18094}},{"type":"Feature","geometry":{"type":"LineString","coordinates":[[3.771367,51.10462],[3.77141,51.10458],[3.771356,51.10455],[3.771238,51.1046]]},"properties":{"name":"Elzenhof","highway":"residential","vertex1":18106,"vertex2":18093}},{"type":"Feature","geometry":{"type":"LineString","coordinates":[[3.772349,51.10385],[3.772504,51.10431],[3.77264,51.10473],[3.772734,51.10501]]},"properties":{"name":"Molzelebilk","highway":"residential","maxspeed":"30","vertex1":18105,"vertex2":18101}},{"type":"Feature","geometry":{"type":"LineString","coordinates":[[3.772349,51.10385],[3.772358,51.10374],[3.772526,51.10351],[3.772727,51.10326],[3.772967,51.10298]]},"properties":{"name":"Molzelebilk","highway":"residential","maxspeed":"30","vertex1":18105,"vertex2":18085}},{"type":"Feature","geometry":{"type":"LineString","coordinates":[[3.774163,51.1054],[3.773953,51.10535],[3.773616,51.10525],[3.773187,51.10513],[3.772734,51.10501]]},"properties":{"name":"Grasland","highway":"residential","maxspeed":"30","vertex1":18103,"vertex2":18101}},{"type":"Feature","geometry":{"type":"LineString","coordinates":[[3.774163,51.1054],[3.774448,51.1053],[3.774584,51.10524],[3.774762,51.10508],[3.77584,51.10392]]},"properties":{"name":"Molzelestraat","cyclenetwork":"yes","highway":"residential","maxspeed":"30","vertex1":18103,"vertex2":18100}},{"type":"Feature","geometry":{"type":"LineString","coordinates":[[3.774163,51.1054],[3.773987,51.1055],[3.773899,51.10558],[3.773795,51.10573],[3.773374,51.10657]]},"properties":{"name":"Molzelestraat","cyclenetwork":"yes","highway":"residential","maxspeed":"30","vertex1":18103,"vertex2":18092}},{"type":"Feature","geometry":{"type":"LineString","coordinates":[[3.777406,51.10772],[3.780424,51.10799]]},"properties":{"name":"Wittewalle","maxspeed":"50","highway":"tertiary","vertex1":18102,"vertex2":19979}},{"type":"Feature","geometry":{"type":"LineString","coordinates":[[3.777406,51.10772],[3.774805,51.10748],[3.773537,51.10735],[3.772952,51.10724]]},"properties":{"name":"Wittewalle","maxspeed":"50","highway":"tertiary","vertex1":18102,"vertex2":18086}},{"type":"Feature","geometry":{"type":"LineString","coordinates":[[3.777406,51.10772],[3.777505,51.10704],[3.7775,51.10699],[3.777478,51.10695],[3.777446,51.10691],[3.777387,51.10688],[3.776867,51.10683],[3.775955,51.10678],[3.774957,51.10671],[3.773457,51.10658],[3.773374,51.10657]]},"properties":{"name":"Jozef Paelinckstraat","highway":"residential","vertex1":18102,"vertex2":18092}},{"type":"Feature","geometry":{"type":"LineString","coordinates":[[3.772734,51.10501],[3.772766,51.10513],[3.772639,51.10539]]},"properties":{"name":"Molzelebilk","highway":"residential","maxspeed":"30","vertex1":18101,"vertex2":18084}},{"type":"Feature","geometry":{"type":"LineString","coordinates":[[3.77584,51.10392],[3.775775,51.1039]]},"properties":{"name":"Bredestraat","cyclenetwork":"yes","highway":"tertiary","vertex1":18100,"vertex2":18087}},{"type":"Feature","geometry":{"type":"LineString","coordinates":[[3.770713,51.10394],[3.770488,51.10382],[3.770062,51.1037]]},"properties":{"name":"Ramstraat","highway":"residential","maxspeed":"30","vertex1":18099,"vertex2":18097}},{"type":"Feature","geometry":{"type":"LineString","coordinates":[[3.770016,51.10484],[3.770316,51.1048],[3.770863,51.10471],[3.77118,51.10465]]},"properties":{"name":"Elzenhof","highway":"residential","vertex1":18098,"vertex2":18094}},{"type":"Feature","geometry":{"type":"LineString","coordinates":[[3.770062,51.1037],[3.769887,51.10365],[3.769651,51.10353],[3.76957,51.10346]]},"properties":{"name":"Ramstraat","highway":"residential","maxspeed":"30","vertex1":18097,"vertex2":18095}},{"type":"Feature","geometry":{"type":"LineString","coordinates":[[3.769673,51.10707],[3.768253,51.10717],[3.767772,51.10719],[3.767007,51.10721]]},"properties":{"name":"Wittewalle","cyclenetwork":"yes","maxspeed":"50","highway":"tertiary","vertex1":18096,"vertex2":18072}},{"type":"Feature","geometry":{"type":"LineString","coordinates":[[3.76957,51.10346],[3.76935,51.10353],[3.768932,51.10372],[3.768764,51.10386],[3.768484,51.10437],[3.768236,51.10482],[3.768248,51.10492],[3.768304,51.10499]]},"properties":{"name":"Ooistraat","highway":"residential","maxspeed":"30","vertex1":18095,"vertex2":18049}},{"type":"Feature","geometry":{"type":"LineString","coordinates":[[3.77118,51.10465],[3.771238,51.1046]]},"properties":{"name":"Elzenhof","highway":"residential","vertex1":18094,"vertex2":18093}},{"type":"Feature","geometry":{"type":"LineString","coordinates":[[3.773374,51.10657],[3.773087,51.10706],[3.772952,51.10724]]},"properties":{"name":"Molzelestraat","cyclenetwork":"yes","highway":"residential","maxspeed":"30","vertex1":18092,"vertex2":18086}},{"type":"Feature","geometry":{"type":"LineString","coordinates":[[3.773313,51.10296],[3.773835,51.10306],[3.774693,51.10322],[3.77568,51.1034],[3.776153,51.1035]]},"properties":{"name":"Moststraat","highway":"residential","maxspeed":"30","vertex1":18091,"vertex2":18089}},{"type":"Feature","geometry":{"type":"LineString","coordinates":[[3.776153,51.1035],[3.775842,51.10383],[3.775775,51.1039]]},"properties":{"name":"Molzelestraat","cyclenetwork":"yes","highway":"residential","maxspeed":"30","vertex1":18089,"vertex2":18087}},{"type":"Feature","geometry":{"type":"LineString","coordinates":[[3.776153,51.1035],[3.77678,51.10365],[3.776888,51.10366],[3.777004,51.10364],[3.777424,51.10349],[3.777589,51.10347],[3.777761,51.10347],[3.78071,51.1039],[3.780868,51.10391],[3.780988,51.1039],[3.781128,51.10387],[3.781276,51.10378]]},"properties":{"name":"Moststraat","cyclenetwork":"yes","highway":"residential","maxspeed":"30","vertex1":18089,"vertex2":19977}},{"type":"Feature","geometry":{"type":"LineString","coordinates":[[3.775775,51.1039],[3.775414,51.10375],[3.774952,51.10359],[3.772967,51.10298]]},"properties":{"name":"Bredestraat","highway":"tertiary","vertex1":18087,"vertex2":18085}},{"type":"Feature","geometry":{"type":"LineString","coordinates":[[3.76527,51.10311],[3.765192,51.10292],[3.765047,51.10263],[3.764801,51.1022],[3.764508,51.10169],[3.764328,51.10134],[3.764206,51.10105]]},"properties":{"name":"Gasthuisstraat","cyclenetwork":"yes","highway":"residential","maxspeed":"30","vertex1":18083,"vertex2":17996}},{"type":"Feature","geometry":{"type":"LineString","coordinates":[[3.76527,51.10311],[3.765339,51.10327],[3.765418,51.10355]]},"properties":{"name":"Gasthuisstraat","cyclenetwork":"yes","highway":"residential","maxspeed":"30","vertex1":18083,"vertex2":18068}},{"type":"Feature","geometry":{"type":"LineString","coordinates":[[3.76527,51.10311],[3.764346,51.10323],[3.764266,51.10324],[3.764204,51.10328],[3.76418,51.10331],[3.764174,51.10334],[3.764426,51.10409]]},"properties":{"highway":"service","vertex1":18083,"vertex2":18056}},{"type":"Feature","geometry":{"type":"LineString","coordinates":[[3.758381,51.10385],[3.758451,51.10389],[3.758496,51.10393],[3.758535,51.10399],[3.758654,51.10405]]},"properties":{"name":"Langerbruggestraat","oneway":"yes","highway":"trunk_link","vertex1":18082,"vertex2":18079}},{"type":"Feature","geometry":{"type":"LineString","coordinates":[[3.758381,51.10385],[3.75825,51.10382],[3.758185,51.10383],[3.758149,51.10384],[3.758121,51.10384],[3.758035,51.10385]]},"properties":{"name":"Langerbruggestraat","oneway":"yes","highway":"trunk_link","vertex1":18082,"vertex2":18047}},{"type":"Feature","geometry":{"type":"LineString","coordinates":[[3.758381,51.10385],[3.758388,51.10378],[3.758355,51.10371],[3.75826,51.10354]]},"properties":{"highway":"cycleway","vertex1":18082,"vertex2":18057}},{"type":"Feature","geometry":{"type":"LineString","coordinates":[[3.763332,51.10421],[3.763386,51.1042]]},"properties":{"name":"Gasthuisstraat","highway":"residential","vertex1":18081,"vertex2":18044}},{"type":"Feature","geometry":{"type":"LineString","coordinates":[[3.758857,51.10291],[3.759333,51.10237],[3.759879,51.10183],[3.760648,51.10115],[3.760918,51.10098]]},"properties":{"name":"Langerbruggestraat","cyclenetwork":"yes","maxspeed":"50","highway":"tertiary","vertex1":18080,"vertex2":18012}},{"type":"Feature","geometry":{"type":"LineString","coordinates":[[3.758857,51.10291],[3.758656,51.10316],[3.758507,51.10331],[3.758507,51.10331]]},"properties":{"name":"Langerbruggestraat","oneway":"yes","cyclenetwork":"yes","maxspeed":"50","highway":"tertiary","vertex1":18080,"vertex2":18040}},{"type":"Feature","geometry":{"type":"LineString","coordinates":[[3.758857,51.10291],[3.758435,51.10314]]},"properties":{"name":"Langerbruggestraat","oneway":"yes","maxspeed":"50","highway":"tertiary","vertex1":18080,"vertex2":18055}},{"type":"Feature","geometry":{"type":"LineString","coordinates":[[3.758654,51.10405],[3.759348,51.10524],[3.759888,51.106],[3.760064,51.10624]]},"properties":{"name":"John Kennedylaan","oneway":"yes","bicycle":"yes","cycleway":"lane","highway":"trunk","maxspeed":"90","vertex1":18079,"vertex2":18051}},{"type":"Feature","geometry":{"type":"LineString","coordinates":[[3.758654,51.10405],[3.75848,51.10374],[3.758337,51.10347]]},"properties":{"name":"John Kennedylaan","oneway":"yes","bicycle":"yes","cycleway":"lane","highway":"trunk","maxspeed":"90","vertex1":18079,"vertex2":18078}},{"type":"Feature","geometry":{"type":"LineString","coordinates":[[3.758337,51.10347],[3.758272,51.10333]]},"properties":{"name":"John Kennedylaan","oneway":"yes","bicycle":"yes","cycleway":"lane","highway":"trunk","maxspeed":"90","vertex1":18078,"vertex2":18054}},{"type":"Feature","geometry":{"type":"LineString","coordinates":[[3.758337,51.10347],[3.758507,51.10331]]},"properties":{"name":"Langerbruggestraat","oneway":"yes","cyclenetwork":"yes","maxspeed":"50","highway":"tertiary","vertex1":18078,"vertex2":18040}},{"type":"Feature","geometry":{"type":"LineString","coordinates":[[3.758337,51.10347],[3.75826,51.10354]]},"properties":{"name":"Langebruggestraat","oneway":"yes","cyclenetwork":"yes","maxspeed":"50","highway":"residential","vertex1":18078,"vertex2":18057}},{"type":"Feature","geometry":{"type":"LineString","coordinates":[[3.75982,51.10701],[3.760075,51.10691],[3.760107,51.1069],[3.760161,51.10687],[3.760235,51.10684]]},"properties":{"name":"Imsakkerlaan","oneway":"yes","highway":"trunk_link","vertex1":18077,"vertex2":18075}},{"type":"Feature","geometry":{"type":"LineString","coordinates":[[3.75982,51.10701],[3.757485,51.10848]]},"properties":{"name":"Imsakkerlaan","highway":"unclassified","vertex1":18077,"vertex2":19997}},{"type":"Feature","geometry":{"type":"LineString","coordinates":[[3.75982,51.10701],[3.759948,51.10688],[3.759978,51.10685],[3.760029,51.10679],[3.760069,51.10675],[3.760098,51.10672],[3.760133,51.10667],[3.760161,51.10659],[3.760166,51.10654],[3.760168,51.10649],[3.760142,51.10641],[3.760064,51.10624]]},"properties":{"name":"Imsakkerlaan","oneway":"yes","highway":"trunk_link","vertex1":18077,"vertex2":18051}},{"type":"Feature","geometry":{"type":"LineString","coordinates":[[3.760235,51.10684],[3.760287,51.10684],[3.760346,51.10685],[3.760398,51.10686],[3.76045,51.10689],[3.760777,51.10718]]},"properties":{"name":"Imsakkerlaan","oneway":"yes","highway":"trunk_link","vertex1":18075,"vertex2":18052}},{"type":"Feature","geometry":{"type":"LineString","coordinates":[[3.765942,51.10445],[3.765696,51.10445]]},"properties":{"name":"Gasthuistraat","highway":"residential","maxspeed":"30","vertex1":18074,"vertex2":18066}},{"type":"Feature","geometry":{"type":"LineString","coordinates":[[3.765942,51.10445],[3.766012,51.10452],[3.766121,51.10473],[3.766195,51.10489],[3.76626,51.10505],[3.766127,51.1052]]},"properties":{"name":"Gasthuistraat","highway":"residential","maxspeed":"30","vertex1":18074,"vertex2":18038}},{"type":"Feature","geometry":{"type":"LineString","coordinates":[[3.758196,51.10342],[3.758126,51.10349],[3.758063,51.1036],[3.75804,51.10365],[3.758029,51.10366],[3.757996,51.10373]]},"properties":{"name":"Langerbruggestraat","oneway":"yes","maxspeed":"50","highway":"residential","vertex1":18073,"vertex2":18071}},{"type":"Feature","geometry":{"type":"LineString","coordinates":[[3.758196,51.10342],[3.758272,51.10333]]},"properties":{"name":"Langerbruggestraat","oneway":"yes","maxspeed":"50","highway":"residential","vertex1":18073,"vertex2":18054}},{"type":"Feature","geometry":{"type":"LineString","coordinates":[[3.758196,51.10342],[3.75826,51.10354]]},"properties":{"highway":"cycleway","vertex1":18073,"vertex2":18057}},{"type":"Feature","geometry":{"type":"LineString","coordinates":[[3.758196,51.10342],[3.758074,51.10321]]},"properties":{"highway":"cycleway","vertex1":18073,"vertex2":18033}},{"type":"Feature","geometry":{"type":"LineString","coordinates":[[3.767007,51.10721],[3.766848,51.10716]]},"properties":{"name":"Wittewalle","cyclenetwork":"yes","maxspeed":"50","highway":"tertiary","vertex1":18072,"vertex2":18046}},{"type":"Feature","geometry":{"type":"LineString","coordinates":[[3.767007,51.10721],[3.767317,51.10735],[3.767604,51.10752],[3.768634,51.10857],[3.768779,51.10873],[3.768849,51.10888],[3.769154,51.10961],[3.769297,51.10984]]},"properties":{"name":"Borkerlaarstraat","highway":"unclassified","vertex1":18072,"vertex2":19982}},{"type":"Feature","geometry":{"type":"LineString","coordinates":[[3.757996,51.10373],[3.757855,51.10399]]},"properties":{"name":"Langerbruggestraat","oneway":"yes","maxspeed":"50","highway":"residential","vertex1":18071,"vertex2":18069}},{"type":"Feature","geometry":{"type":"LineString","coordinates":[[3.757996,51.10373],[3.757972,51.10363],[3.757987,51.10359],[3.758013,51.1035],[3.758032,51.10345],[3.758048,51.10336],[3.758059,51.10324],[3.758074,51.10321]]},"properties":{"highway":"cycleway","vertex1":18071,"vertex2":18033}},{"type":"Feature","geometry":{"type":"LineString","coordinates":[[3.757644,51.10422],[3.757598,51.10426],[3.757318,51.1044],[3.75704,51.10451],[3.755133,51.1052],[3.754887,51.10529]]},"properties":{"name":"Langerbruggestraat","cyclenetwork":"yes","maxspeed":"50","highway":"unclassified","vertex1":18070,"vertex2":17840}},{"type":"Feature","geometry":{"type":"LineString","coordinates":[[3.757644,51.10422],[3.757754,51.10413]]},"properties":{"name":"Langerbruggestraat","cyclenetwork":"yes","maxspeed":"50","highway":"unclassified","vertex1":18070,"vertex2":18050}},{"type":"Feature","geometry":{"type":"LineString","coordinates":[[3.757644,51.10422],[3.757499,51.10415],[3.757436,51.10409],[3.757393,51.10401],[3.757343,51.10376]]},"properties":{"oneway":"yes","highway":"service","vertex1":18070,"vertex2":18059}},{"type":"Feature","geometry":{"type":"LineString","coordinates":[[3.757855,51.10399],[3.757795,51.10409]]},"properties":{"name":"Langerbruggestraat","oneway":"yes","maxspeed":"50","highway":"residential","vertex1":18069,"vertex2":18067}},{"type":"Feature","geometry":{"type":"LineString","coordinates":[[3.757855,51.10399],[3.757685,51.104],[3.757586,51.10398],[3.75752,51.10395],[3.757416,51.10386]]},"properties":{"oneway":"yes","highway":"service","vertex1":18069,"vertex2":18063}},{"type":"Feature","geometry":{"type":"LineString","coordinates":[[3.757855,51.10399],[3.757934,51.10401]]},"properties":{"oneway":"yes","highway":"service","vertex1":18069,"vertex2":18065}},{"type":"Feature","geometry":{"type":"LineString","coordinates":[[3.765418,51.10355],[3.765529,51.10396]]},"properties":{"name":"Gasthuisstraat","cyclenetwork":"yes","highway":"residential","maxspeed":"30","vertex1":18068,"vertex2":18048}},{"type":"Feature","geometry":{"type":"LineString","coordinates":[[3.765418,51.10355],[3.765724,51.10325],[3.766015,51.10297],[3.766203,51.10278],[3.766412,51.10258],[3.766415,51.10257],[3.766437,51.10252],[3.766729,51.10221],[3.766724,51.10214],[3.766685,51.10205],[3.766645,51.10194],[3.766637,51.10189],[3.766654,51.10183],[3.766787,51.10163],[3.766976,51.10136],[3.767164,51.10111]]},"properties":{"name":"Sint-Rafalstraat","highway":"residential","maxspeed":"30","vertex1":18068,"vertex2":18027}},{"type":"Feature","geometry":{"type":"LineString","coordinates":[[3.757795,51.10409],[3.757754,51.10413]]},"properties":{"name":"Langerbruggestraat","cyclenetwork":"yes","maxspeed":"50","highway":"unclassified","vertex1":18067,"vertex2":18050}},{"type":"Feature","geometry":{"type":"LineString","coordinates":[[3.757795,51.10409],[3.758035,51.10385]]},"properties":{"name":"Langerbruggestraat","cyclenetwork":"yes","maxspeed":"50","highway":"residential","oneway":"-1","vertex1":18067,"vertex2":18047}},{"type":"Feature","geometry":{"type":"LineString","coordinates":[[3.765696,51.10445],[3.765579,51.10414],[3.765529,51.10396]]},"properties":{"name":"Gasthuisstraat","cyclenetwork":"yes","highway":"residential","maxspeed":"30","vertex1":18066,"vertex2":18048}},{"type":"Feature","geometry":{"type":"LineString","coordinates":[[3.765696,51.10445],[3.765848,51.10474],[3.766127,51.1052]]},"properties":{"name":"Gasthuisstraat","cyclenetwork":"yes","highway":"residential","maxspeed":"30","vertex1":18066,"vertex2":18038}},{"type":"Feature","geometry":{"type":"LineString","coordinates":[[3.766258,51.10541],[3.766172,51.10526],[3.766127,51.1052]]},"properties":{"name":"Gasthuisstraat","cyclenetwork":"yes","highway":"residential","maxspeed":"30","vertex1":18064,"vertex2":18038}},{"type":"Feature","geometry":{"type":"LineString","coordinates":[[3.766258,51.10541],[3.766346,51.10553],[3.766535,51.10581],[3.766685,51.10603],[3.766849,51.10632],[3.766879,51.10645],[3.766904,51.10656],[3.766911,51.10676],[3.76689,51.1069],[3.766848,51.10716]]},"properties":{"name":"Gasthuisstraat","cyclenetwork":"yes","highway":"residential","maxspeed":"30","vertex1":18064,"vertex2":18046}},{"type":"Feature","geometry":{"type":"LineString","coordinates":[[3.766258,51.10541],[3.766756,51.1053],[3.767376,51.10518],[3.767644,51.10513]]},"properties":{"name":"Ooistraat","highway":"residential","maxspeed":"30","vertex1":18064,"vertex2":18037}},{"type":"Feature","geometry":{"type":"LineString","coordinates":[[3.757416,51.10386],[3.757343,51.10376]]},"properties":{"oneway":"yes","highway":"service","vertex1":18063,"vertex2":18059}},{"type":"Feature","geometry":{"type":"LineString","coordinates":[[3.757416,51.10386],[3.757487,51.10396],[3.757552,51.10403],[3.757636,51.10407],[3.757754,51.10413]]},"properties":{"oneway":"yes","highway":"service","vertex1":18063,"vertex2":18050}},{"type":"Feature","geometry":{"type":"LineString","coordinates":[[3.761662,51.10528],[3.762544,51.10517]]},"properties":{"highway":"service","vertex1":18062,"vertex2":18060}},{"type":"Feature","geometry":{"type":"LineString","coordinates":[[3.758001,51.10314],[3.757976,51.10331],[3.757954,51.10339],[3.75794,51.10343],[3.757928,51.10347],[3.7579,51.10355],[3.757871,51.10363],[3.757845,51.10368],[3.757799,51.10372],[3.75777,51.10373],[3.757692,51.10376],[3.757646,51.10376],[3.757343,51.10376]]},"properties":{"oneway":"yes","highway":"service","vertex1":18061,"vertex2":18059}},{"type":"Feature","geometry":{"type":"LineString","coordinates":[[3.758001,51.10314],[3.757986,51.10299],[3.757904,51.10261]]},"properties":{"oneway":"yes","highway":"service","vertex1":18061,"vertex2":17997}},{"type":"Feature","geometry":{"type":"LineString","coordinates":[[3.758001,51.10314],[3.758054,51.10316],[3.758074,51.10321]]},"properties":{"highway":"cycleway","vertex1":18061,"vertex2":18033}},{"type":"Feature","geometry":{"type":"LineString","coordinates":[[3.758001,51.10314],[3.757939,51.10312],[3.757865,51.10285],[3.757377,51.10191],[3.757002,51.10097],[3.756587,51.09958],[3.756244,51.09829],[3.756047,51.09691],[3.756008,51.09529],[3.756047,51.09403],[3.756482,51.08911],[3.756466,51.08861],[3.756396,51.08801],[3.756352,51.08754],[3.756328,51.08738],[3.756271,51.08708],[3.756135,51.08661],[3.755944,51.08608],[3.755762,51.08563],[3.755537,51.08515],[3.755349,51.08477],[3.755095,51.08432],[3.754857,51.08393],[3.754562,51.08349],[3.754272,51.08311],[3.753989,51.08274],[3.753636,51.08234],[3.753466,51.08215]]},"properties":{"highway":"cycleway","vertex1":18061,"vertex2":18572}},{"type":"Feature","geometry":{"type":"LineString","coordinates":[[3.762544,51.10517],[3.762676,51.1055],[3.762777,51.10572],[3.762884,51.10588],[3.763062,51.10612]]},"properties":{"name":"Eekhoutdriesstraat","maxspeed":"50","highway":"tertiary","vertex1":18060,"vertex2":18036}},{"type":"Feature","geometry":{"type":"LineString","coordinates":[[3.762544,51.10517],[3.762516,51.1051],[3.762341,51.10451],[3.762244,51.10431],[3.762081,51.10405],[3.76185,51.10373],[3.76168,51.1034],[3.761559,51.10307]]},"properties":{"name":"Eekhoutdriesstraat","maxspeed":"50","highway":"tertiary","vertex1":18060,"vertex2":18032}},{"type":"Feature","geometry":{"type":"LineString","coordinates":[[3.757343,51.10376],[3.757246,51.10376],[3.757133,51.1036],[3.757123,51.10359]]},"properties":{"oneway":"yes","highway":"service","vertex1":18059,"vertex2":17834}},{"type":"Feature","geometry":{"type":"LineString","coordinates":[[3.757343,51.10376],[3.75728,51.10362],[3.757178,51.10351],[3.757081,51.10344],[3.75702,51.1034]]},"properties":{"highway":"service","vertex1":18059,"vertex2":17866}},{"type":"Feature","geometry":{"type":"LineString","coordinates":[[3.763947,51.1066],[3.763585,51.10647],[3.763278,51.10631],[3.763062,51.10612]]},"properties":{"name":"Wittewalle","maxspeed":"50","highway":"tertiary","vertex1":18058,"vertex2":18036}},{"type":"Feature","geometry":{"type":"LineString","coordinates":[[3.763947,51.1066],[3.764388,51.10671],[3.764927,51.10681],[3.766848,51.10716]]},"properties":{"name":"Wittewalle","maxspeed":"50","highway":"tertiary","vertex1":18058,"vertex2":18046}},{"type":"Feature","geometry":{"type":"LineString","coordinates":[[3.75826,51.10354],[3.758201,51.10362],[3.758126,51.10372],[3.758108,51.10375],[3.758088,51.10378],[3.758035,51.10385]]},"properties":{"name":"Langebruggestraat","oneway":"yes","cyclenetwork":"yes","maxspeed":"50","highway":"residential","vertex1":18057,"vertex2":18047}},{"type":"Feature","geometry":{"type":"LineString","coordinates":[[3.764426,51.10409],[3.764131,51.10413],[3.763783,51.10416],[3.763498,51.10418],[3.763386,51.1042]]},"properties":{"name":"Gasthuisstraat","highway":"residential","vertex1":18056,"vertex2":18044}},{"type":"Feature","geometry":{"type":"LineString","coordinates":[[3.764426,51.10409],[3.764616,51.10407]]},"properties":{"name":"Gasthuisstraat","highway":"residential","vertex1":18056,"vertex2":18042}},{"type":"Feature","geometry":{"type":"LineString","coordinates":[[3.758435,51.10314],[3.758349,51.10297],[3.75826,51.10279],[3.757692,51.10167],[3.75728,51.10057],[3.756966,51.09949],[3.756813,51.09874]]},"properties":{"name":"John Kennedylaan","oneway":"yes","highway":"trunk","maxspeed":"90","vertex1":18055,"vertex2":17944}},{"type":"Feature","geometry":{"type":"LineString","coordinates":[[3.758435,51.10314],[3.758272,51.10333]]},"properties":{"name":"Langerbruggestraat","oneway":"yes","maxspeed":"50","highway":"tertiary","vertex1":18055,"vertex2":18054}},{"type":"Feature","geometry":{"type":"LineString","coordinates":[[3.758435,51.10314],[3.758507,51.10331]]},"properties":{"name":"John Kennedylaan","oneway":"yes","bicycle":"yes","cycleway":"lane","highway":"trunk","maxspeed":"90","vertex1":18055,"vertex2":18040}},{"type":"Feature","geometry":{"type":"LineString","coordinates":[[3.758272,51.10333],[3.757904,51.10261]]},"properties":{"name":"John Kennedylaan","oneway":"yes","highway":"trunk","maxspeed":"90","vertex1":18054,"vertex2":17997}},{"type":"Feature","geometry":{"type":"LineString","coordinates":[[3.760616,51.1067],[3.760956,51.10714],[3.761818,51.10812],[3.762293,51.10864],[3.762673,51.10904]]},"properties":{"name":"John Kennedylaan","oneway":"yes","highway":"trunk","maxspeed":"90","vertex1":18053,"vertex2":19985}},{"type":"Feature","geometry":{"type":"LineString","coordinates":[[3.760616,51.1067],[3.760713,51.10666],[3.760774,51.10663],[3.760852,51.10658],[3.761317,51.10628],[3.761681,51.10584],[3.761787,51.10579]]},"properties":{"name":"Wittewalle","highway":"service","vertex1":18053,"vertex2":18034}},{"type":"Feature","geometry":{"type":"LineString","coordinates":[[3.760616,51.1067],[3.760369,51.10637],[3.759515,51.10514],[3.759313,51.10478],[3.758572,51.10345],[3.758507,51.10331]]},"properties":{"name":"John Kennedylaan","oneway":"yes","bicycle":"yes","cycleway":"lane","highway":"trunk","maxspeed":"90","vertex1":18053,"vertex2":18040}},{"type":"Feature","geometry":{"type":"LineString","coordinates":[[3.762673,51.10904],[3.763126,51.10952],[3.763204,51.10959],[3.763343,51.10972]]},"properties":{"name":"John Kennedylaan","oneway":"yes","highway":"trunk","maxspeed":"90","vertex1":19985,"vertex2":19983}},{"type":"Feature","geometry":{"type":"LineString","coordinates":[[3.760777,51.10718],[3.760064,51.10624]]},"properties":{"name":"John Kennedylaan","oneway":"yes","bicycle":"yes","cycleway":"lane","highway":"trunk","maxspeed":"90","vertex1":18052,"vertex2":18051}},{"type":"Feature","geometry":{"type":"LineString","coordinates":[[3.768304,51.10499],[3.768105,51.10503],[3.767644,51.10513]]},"properties":{"name":"Ooistraat","highway":"residential","maxspeed":"30","vertex1":18049,"vertex2":18037}},{"type":"Feature","geometry":{"type":"LineString","coordinates":[[3.765529,51.10396],[3.766065,51.10381],[3.766497,51.10368],[3.766652,51.10364]]},"properties":{"name":"Leonard De Laviestraat","highway":"residential","maxspeed":"30","vertex1":18048,"vertex2":18039}},{"type":"Feature","geometry":{"type":"LineString","coordinates":[[3.765529,51.10396],[3.764616,51.10407]]},"properties":{"name":"Gasthuisstraat","highway":"residential","vertex1":18048,"vertex2":18042}},{"type":"Feature","geometry":{"type":"LineString","coordinates":[[3.76664,51.10316],[3.766452,51.10309],[3.766322,51.10323],[3.766337,51.10325],[3.766393,51.10331]]},"properties":{"name":"Leonard De Laviestraat","highway":"residential","maxspeed":"30","vertex1":18045,"vertex2":18043}},{"type":"Feature","geometry":{"type":"LineString","coordinates":[[3.76664,51.10316],[3.766443,51.10335]]},"properties":{"name":"Leonard De Laviestraat","highway":"residential","maxspeed":"30","vertex1":18045,"vertex2":18041}},{"type":"Feature","geometry":{"type":"LineString","coordinates":[[3.763386,51.1042],[3.763434,51.10435],[3.763463,51.1044],[3.763528,51.10443],[3.763582,51.10445],[3.764582,51.10435],[3.764636,51.10433],[3.764671,51.10428],[3.764676,51.10424],[3.764616,51.10407]]},"properties":{"highway":"service","vertex1":18044,"vertex2":18042}},{"type":"Feature","geometry":{"type":"LineString","coordinates":[[3.766393,51.10331],[3.766443,51.10335]]},"properties":{"name":"Leonard De Laviestraat","highway":"residential","maxspeed":"30","vertex1":18043,"vertex2":18041}},{"type":"Feature","geometry":{"type":"LineString","coordinates":[[3.766443,51.10335],[3.766464,51.10338],[3.766529,51.10348],[3.766652,51.10364]]},"properties":{"name":"Leonard De Laviestraat","highway":"residential","maxspeed":"30","vertex1":18041,"vertex2":18039}},{"type":"Feature","geometry":{"type":"LineString","coordinates":[[3.766652,51.10364],[3.767138,51.1035],[3.767503,51.10341]]},"properties":{"name":"Leonard De Laviestraat","highway":"residential","maxspeed":"30","vertex1":18039,"vertex2":18035}},{"type":"Feature","geometry":{"type":"LineString","coordinates":[[3.767644,51.10513],[3.767494,51.10493],[3.767484,51.10479],[3.767516,51.10464],[3.767569,51.10449],[3.767666,51.10431],[3.767795,51.10408],[3.76773,51.10395],[3.767747,51.10384],[3.767784,51.10378],[3.767827,51.10367],[3.76772,51.10354],[3.767612,51.10346],[3.767503,51.10341]]},"properties":{"name":"Schapenfokkerspad","maxspeed":"30","highway":"track","vertex1":18037,"vertex2":18035}},{"type":"Feature","geometry":{"type":"LineString","coordinates":[[3.763062,51.10612],[3.762794,51.10605],[3.761939,51.10582],[3.761787,51.10579]]},"properties":{"name":"Wittewalle","motorcar":"no","highway":"residential","vertex1":18036,"vertex2":18034}},{"type":"Feature","geometry":{"type":"LineString","coordinates":[[3.761559,51.10307],[3.761531,51.103],[3.761474,51.10286],[3.761449,51.1027]]},"properties":{"name":"Eekhoutdriesstraat","maxspeed":"50","highway":"tertiary","vertex1":18032,"vertex2":18015}},{"type":"Feature","geometry":{"type":"LineString","coordinates":[[3.761559,51.10307],[3.762651,51.10288]]},"properties":{"highway":"residential","vertex1":18032,"vertex2":18006}},{"type":"Feature","geometry":{"type":"LineString","coordinates":[[3.760102,51.09982],[3.760407,51.09996],[3.76065,51.10013]]},"properties":{"name":"Ledergemstraat","highway":"residential","maxspeed":"30","vertex1":18031,"vertex2":17982}},{"type":"Feature","geometry":{"type":"LineString","coordinates":[[3.760102,51.09982],[3.759148,51.09944]]},"properties":{"name":"Ledergemstraat","highway":"residential","maxspeed":"30","vertex1":18031,"vertex2":18000}},{"type":"Feature","geometry":{"type":"LineString","coordinates":[[3.765673,51.0993],[3.765649,51.09922],[3.765499,51.09913]]},"properties":{"highway":"track","vertex1":18030,"vertex2":17991}},{"type":"Feature","geometry":{"type":"LineString","coordinates":[[3.765673,51.0993],[3.765717,51.09938]]},"properties":{"highway":"track","vertex1":18030,"vertex2":18028}},{"type":"Feature","geometry":{"type":"LineString","coordinates":[[3.765673,51.0993],[3.766046,51.09912],[3.766271,51.09901],[3.766142,51.09892],[3.765904,51.09884]]},"properties":{"highway":"track","vertex1":18030,"vertex2":18026}},{"type":"Feature","geometry":{"type":"LineString","coordinates":[[3.764683,51.09903],[3.764905,51.09915],[3.765127,51.0993],[3.765255,51.09937],[3.76527,51.09945]]},"properties":{"highway":"track","vertex1":18029,"vertex2":17989}},{"type":"Feature","geometry":{"type":"LineString","coordinates":[[3.764683,51.09903],[3.764533,51.09888]]},"properties":{"highway":"track","vertex1":18029,"vertex2":18021}},{"type":"Feature","geometry":{"type":"LineString","coordinates":[[3.764683,51.09903],[3.764941,51.09905],[3.765198,51.09901],[3.765263,51.09897]]},"properties":{"highway":"track","vertex1":18029,"vertex2":18005}},{"type":"Feature","geometry":{"type":"LineString","coordinates":[[3.765717,51.09938],[3.766143,51.09935],[3.766957,51.09935],[3.767854,51.09935],[3.768058,51.09935]]},"properties":{"name":"Sint-Laurentiuslaan","maxspeed":"50","highway":"tertiary","cycleway":"lane","vertex1":18028,"vertex2":17999}},{"type":"Feature","geometry":{"type":"LineString","coordinates":[[3.765717,51.09938],[3.765605,51.0994],[3.76527,51.09945]]},"properties":{"name":"Sint-Laurentiuslaan","maxspeed":"50","highway":"tertiary","cycleway":"lane","vertex1":18028,"vertex2":17989}},{"type":"Feature","geometry":{"type":"LineString","coordinates":[[3.767164,51.10111],[3.766924,51.10106],[3.766714,51.10102]]},"properties":{"name":"Bredestraat","highway":"tertiary","vertex1":18027,"vertex2":17986}},{"type":"Feature","geometry":{"type":"LineString","coordinates":[[3.765904,51.09884],[3.765853,51.09882],[3.765756,51.0989],[3.765724,51.09903],[3.765606,51.09911],[3.765499,51.09913]]},"properties":{"highway":"track","vertex1":18026,"vertex2":17991}},{"type":"Feature","geometry":{"type":"LineString","coordinates":[[3.765904,51.09884],[3.765713,51.09873],[3.765563,51.09863]]},"properties":{"highway":"track","vertex1":18026,"vertex2":18024}},{"type":"Feature","geometry":{"type":"LineString","coordinates":[[3.761413,51.09759],[3.761031,51.09732],[3.760312,51.09685],[3.760001,51.09658],[3.759689,51.09631],[3.759591,51.09621],[3.759451,51.09604],[3.759316,51.09594],[3.758687,51.09552]]},"properties":{"name":"Kleemstraat","highway":"residential","vertex1":18025,"vertex2":18231}},{"type":"Feature","geometry":{"type":"LineString","coordinates":[[3.761413,51.09759],[3.76274,51.09846]]},"properties":{"name":"Kleemstraat","highway":"residential","vertex1":18025,"vertex2":18008}},{"type":"Feature","geometry":{"type":"LineString","coordinates":[[3.761413,51.09759],[3.759148,51.09944]]},"properties":{"name":"Zuidakkerlaan","highway":"residential","vertex1":18025,"vertex2":18000}},{"type":"Feature","geometry":{"type":"LineString","coordinates":[[3.765563,51.09863],[3.765531,51.09868],[3.765488,51.09877],[3.765455,51.09887],[3.765263,51.09897]]},"properties":{"highway":"track","vertex1":18024,"vertex2":18005}},{"type":"Feature","geometry":{"type":"LineString","coordinates":[[3.765563,51.09863],[3.765359,51.09852],[3.76527,51.09846]]},"properties":{"highway":"track","vertex1":18024,"vertex2":18022}},{"type":"Feature","geometry":{"type":"LineString","coordinates":[[3.765137,51.10039],[3.765308,51.10043],[3.765422,51.10046],[3.765829,51.10058],[3.766259,51.10074],[3.76663,51.10092],[3.766642,51.10095],[3.766628,51.101]]},"properties":{"name":"Bredestraat","oneway":"yes","highway":"residential","vertex1":18023,"vertex2":17985}},{"type":"Feature","geometry":{"type":"LineString","coordinates":[[3.765137,51.10039],[3.765052,51.10036],[3.764791,51.10024]]},"properties":{"name":"Oostakkerdorp","oneway":"yes","highway":"residential","vertex1":18023,"vertex2":18013}},{"type":"Feature","geometry":{"type":"LineString","coordinates":[[3.76527,51.09846],[3.76523,51.09848],[3.764533,51.09888]]},"properties":{"name":"Gentstraat","maxspeed":"30","highway":"cycleway","vertex1":18022,"vertex2":18021}},{"type":"Feature","geometry":{"type":"LineString","coordinates":[[3.76527,51.09846],[3.765702,51.09821],[3.765874,51.09814]]},"properties":{"name":"Gentstraat","maxspeed":"30","highway":"cycleway","vertex1":18022,"vertex2":17995}},{"type":"Feature","geometry":{"type":"LineString","coordinates":[[3.764533,51.09888],[3.763968,51.09919]]},"properties":{"name":"Gentstraat","maxspeed":"30","highway":"cycleway","vertex1":18021,"vertex2":18020}},{"type":"Feature","geometry":{"type":"LineString","coordinates":[[3.763968,51.09919],[3.764018,51.09927],[3.764253,51.09967]]},"properties":{"name":"Gentstraat","highway":"residential","maxspeed":"30","vertex1":18020,"vertex2":17993}},{"type":"Feature","geometry":{"type":"LineString","coordinates":[[3.763968,51.09919],[3.763836,51.09901],[3.763394,51.09854]]},"properties":{"name":"Gentstraat","highway":"residential","maxspeed":"30","vertex1":18020,"vertex2":18009}},{"type":"Feature","geometry":{"type":"LineString","coordinates":[[3.76352,51.10018],[3.763152,51.10047]]},"properties":{"name":"Oostakkerdorp","oneway":"yes","maxspeed":"30","highway":"tertiary","vertex1":18019,"vertex2":17987}},{"type":"Feature","geometry":{"type":"LineString","coordinates":[[3.76352,51.10018],[3.763547,51.10023],[3.763593,51.1003],[3.763629,51.10034],[3.763676,51.10038]]},"properties":{"name":"Oostakkerdorp","oneway":"yes","highway":"residential","maxspeed":"30","vertex1":18019,"vertex2":18001}},{"type":"Feature","geometry":{"type":"LineString","coordinates":[[3.76352,51.10018],[3.76353,51.10018],[3.763944,51.09981],[3.764094,51.09973],[3.764253,51.09967]]},"properties":{"name":"Oostakkerdorp","oneway":"yes","maxspeed":"30","highway":"tertiary","vertex1":18019,"vertex2":17993}},{"type":"Feature","geometry":{"type":"LineString","coordinates":[[3.768128,51.10038],[3.767843,51.10028],[3.767548,51.10019]]},"properties":{"name":"Vendelstraat","highway":"residential","maxspeed":"30","vertex1":18018,"vertex2":17984}},{"type":"Feature","geometry":{"type":"LineString","coordinates":[[3.767155,51.09842],[3.766718,51.09844],[3.766374,51.09842],[3.766239,51.09836],[3.766071,51.09821],[3.766056,51.09812]]},"properties":{"name":"Edmond Ronsestraat","highway":"residential","maxspeed":"30","vertex1":18017,"vertex2":18016}},{"type":"Feature","geometry":{"type":"LineString","coordinates":[[3.767155,51.09842],[3.767241,51.09843],[3.767681,51.09844],[3.768074,51.0985]]},"properties":{"name":"Edmond Ronsestraat","highway":"residential","maxspeed":"30","vertex1":18017,"vertex2":17983}},{"type":"Feature","geometry":{"type":"LineString","coordinates":[[3.767155,51.09842],[3.767066,51.09836],[3.766971,51.09822],[3.766896,51.09811]]},"properties":{"name":"Edmond Ronsestraat","highway":"residential","maxspeed":"30","vertex1":18017,"vertex2":18007}},{"type":"Feature","geometry":{"type":"LineString","coordinates":[[3.766056,51.09812],[3.766056,51.098],[3.766142,51.09792],[3.766432,51.09786],[3.766702,51.09782]]},"properties":{"name":"Gentstraat","maxspeed":"30","highway":"cycleway","vertex1":18016,"vertex2":17998}},{"type":"Feature","geometry":{"type":"LineString","coordinates":[[3.766056,51.09812],[3.765874,51.09814]]},"properties":{"name":"Gentstraat","highway":"cycleway","vertex1":18016,"vertex2":17995}},{"type":"Feature","geometry":{"type":"LineString","coordinates":[[3.761449,51.1027],[3.761342,51.10256],[3.761229,51.10224],[3.761055,51.10169],[3.760972,51.10135],[3.760918,51.10098]]},"properties":{"name":"Oude Holstraat","highway":"residential","oneway":"-1","vertex1":18015,"vertex2":18012}},{"type":"Feature","geometry":{"type":"LineString","coordinates":[[3.761449,51.1027],[3.761429,51.10247],[3.761461,51.10224],[3.761572,51.10198],[3.761721,51.10176],[3.761936,51.10153],[3.762256,51.10125],[3.762535,51.10099]]},"properties":{"name":"Eekhoutdriesstraat","maxspeed":"50","highway":"tertiary","vertex1":18015,"vertex2":18014}},{"type":"Feature","geometry":{"type":"LineString","coordinates":[[3.762535,51.10099],[3.762788,51.10102],[3.763209,51.10105],[3.763612,51.10106],[3.764206,51.10105]]},"properties":{"name":"Pijphoekstraat","cyclenetwork":"yes","highway":"tertiary","vertex1":18014,"vertex2":17996}},{"type":"Feature","geometry":{"type":"LineString","coordinates":[[3.762535,51.10099],[3.762217,51.10093],[3.761734,51.10085],[3.761581,51.10084]]},"properties":{"name":"Pijphoekstraat","cyclenetwork":"yes","highway":"tertiary","vertex1":18014,"vertex2":17992}},{"type":"Feature","geometry":{"type":"LineString","coordinates":[[3.762535,51.10099],[3.762827,51.10072]]},"properties":{"name":"Oostakkerdorp","maxspeed":"30","highway":"tertiary","vertex1":18014,"vertex2":17994}},{"type":"Feature","geometry":{"type":"LineString","coordinates":[[3.764791,51.10024],[3.76461,51.10038],[3.763769,51.10038]]},"properties":{"name":"Oostakkerdorp","oneway":"yes","highway":"residential","vertex1":18013,"vertex2":18011}},{"type":"Feature","geometry":{"type":"LineString","coordinates":[[3.764791,51.10024],[3.764253,51.09967]]},"properties":{"name":"Oostakkerdorp","oneway":"yes","highway":"residential","vertex1":18013,"vertex2":17993}},{"type":"Feature","geometry":{"type":"LineString","coordinates":[[3.760918,51.10098],[3.760894,51.1008],[3.760876,51.1005],[3.760901,51.10033]]},"properties":{"name":"Langebruggestraat","highway":"residential","maxspeed":"30","vertex1":18012,"vertex2":17988}},{"type":"Feature","geometry":{"type":"LineString","coordinates":[[3.760918,51.10098],[3.761117,51.10093],[3.761408,51.10085],[3.761581,51.10084]]},"properties":{"name":"Pijphoekstraat","cyclenetwork":"yes","highway":"tertiary","vertex1":18012,"vertex2":17992}},{"type":"Feature","geometry":{"type":"LineString","coordinates":[[3.763769,51.10038],[3.763816,51.10057],[3.76389,51.10077],[3.763992,51.10087],[3.764206,51.10105]]},"properties":{"name":"Gasthuisstraat","highway":"residential","maxspeed":"30","vertex1":18011,"vertex2":17996}},{"type":"Feature","geometry":{"type":"LineString","coordinates":[[3.763769,51.10038],[3.763676,51.10038]]},"properties":{"name":"Oostakkerdorp","oneway":"yes","highway":"residential","vertex1":18011,"vertex2":18001}},{"type":"Feature","geometry":{"type":"LineString","coordinates":[[3.763192,51.09831],[3.762872,51.0984],[3.76274,51.09846]]},"properties":{"name":"Honor Drubbelstraat","highway":"residential","maxspeed":"30","vertex1":18010,"vertex2":18008}},{"type":"Feature","geometry":{"type":"LineString","coordinates":[[3.763192,51.09831],[3.763394,51.09854]]},"properties":{"name":"Gentstraat","highway":"residential","maxspeed":"30","vertex1":18010,"vertex2":18009}},{"type":"Feature","geometry":{"type":"LineString","coordinates":[[3.763192,51.09831],[3.762856,51.09785],[3.762569,51.09756]]},"properties":{"name":"Gentstraat","highway":"residential","maxspeed":"30","vertex1":18010,"vertex2":17981}},{"type":"Feature","geometry":{"type":"LineString","coordinates":[[3.763394,51.09854],[3.763831,51.09831]]},"properties":{"name":"Gentstraat","highway":"unclassified","vertex1":18009,"vertex2":18003}},{"type":"Feature","geometry":{"type":"LineString","coordinates":[[3.76274,51.09846],[3.762438,51.09868],[3.762148,51.09891],[3.761829,51.09917],[3.761488,51.09944],[3.76137,51.09953]]},"properties":{"name":"Honor Drubbelstraat","highway":"residential","maxspeed":"30","vertex1":18008,"vertex2":18004}},{"type":"Feature","geometry":{"type":"LineString","coordinates":[[3.766896,51.09811],[3.766798,51.09794],[3.766702,51.09782]]},"properties":{"name":"Edmond Ronsestraat","highway":"residential","maxspeed":"30","vertex1":18007,"vertex2":17998}},{"type":"Feature","geometry":{"type":"LineString","coordinates":[[3.765263,51.09897],[3.765499,51.09913]]},"properties":{"highway":"track","vertex1":18005,"vertex2":17991}},{"type":"Feature","geometry":{"type":"LineString","coordinates":[[3.76137,51.09953],[3.760989,51.09986],[3.76065,51.10013]]},"properties":{"name":"Honor Drubbelstraat","highway":"residential","maxspeed":"30","vertex1":18004,"vertex2":17982}},{"type":"Feature","geometry":{"type":"LineString","coordinates":[[3.76137,51.09953],[3.762672,51.1001]]},"properties":{"name":"Oprit GB","maxspeed":"20","highway":"service","vertex1":18004,"vertex2":18002}},{"type":"Feature","geometry":{"type":"LineString","coordinates":[[3.763676,51.10038],[3.763501,51.1004],[3.763294,51.10044],[3.763152,51.10047]]},"properties":{"name":"Oostakkerdorp","oneway":"yes","highway":"residential","vertex1":18001,"vertex2":17987}},{"type":"Feature","geometry":{"type":"LineString","coordinates":[[3.759148,51.09944],[3.75765,51.09894],[3.757067,51.09879]]},"properties":{"name":"Ledergemstraat","highway":"residential","maxspeed":"30","vertex1":18000,"vertex2":17968}},{"type":"Feature","geometry":{"type":"LineString","coordinates":[[3.768058,51.09935],[3.768059,51.09928],[3.768074,51.0985]]},"properties":{"name":"Jozef Cardijnlaan","highway":"residential","maxspeed":"30","vertex1":17999,"vertex2":17983}},{"type":"Feature","geometry":{"type":"LineString","coordinates":[[3.757904,51.10261],[3.757478,51.10177],[3.757066,51.10075],[3.756702,51.09957],[3.756322,51.09783],[3.756178,51.09671],[3.756122,51.09545],[3.756183,51.09391],[3.756595,51.09006],[3.756667,51.08926],[3.75655,51.0878],[3.75645,51.08745]]},"properties":{"name":"John Kennedylaan","oneway":"yes","highway":"trunk","maxspeed":"90","vertex1":17997,"vertex2":17783}},{"type":"Feature","geometry":{"type":"LineString","coordinates":[[3.764206,51.10105],[3.764642,51.10103],[3.765229,51.10099],[3.765818,51.10092],[3.766055,51.10093],[3.766628,51.101]]},"properties":{"name":"Pijphoekstraat","oneway":"yes","highway":"tertiary","vertex1":17996,"vertex2":17985}},{"type":"Feature","geometry":{"type":"LineString","coordinates":[[3.762827,51.10072],[3.762609,51.1007],[3.762146,51.10069],[3.761636,51.10069],[3.761572,51.10071]]},"properties":{"name":"Groenehoekstraat","oneway":"yes","highway":"residential","maxspeed":"30","vertex1":17994,"vertex2":17990}},{"type":"Feature","geometry":{"type":"LineString","coordinates":[[3.762827,51.10072],[3.763152,51.10047]]},"properties":{"name":"Oostakkerdorp","maxspeed":"30","highway":"tertiary","vertex1":17994,"vertex2":17987}},{"type":"Feature","geometry":{"type":"LineString","coordinates":[[3.764253,51.09967],[3.76527,51.09945]]},"properties":{"name":"Sint-Laurentiuslaan","maxspeed":"50","highway":"tertiary","cycleway":"lane","vertex1":17993,"vertex2":17989}},{"type":"Feature","geometry":{"type":"LineString","coordinates":[[3.761581,51.10084],[3.761572,51.10071]]},"properties":{"name":"Ledergemstraat","highway":"residential","maxspeed":"30","vertex1":17992,"vertex2":17990}},{"type":"Feature","geometry":{"type":"LineString","coordinates":[[3.761572,51.10071],[3.761502,51.10067],[3.761196,51.1005],[3.760901,51.10033]]},"properties":{"name":"Ledergemstraat","highway":"residential","maxspeed":"30","vertex1":17990,"vertex2":17988}},{"type":"Feature","geometry":{"type":"LineString","coordinates":[[3.760901,51.10033],[3.76065,51.10013]]},"properties":{"name":"Ledergemstraat","highway":"residential","maxspeed":"30","vertex1":17988,"vertex2":17982}},{"type":"Feature","geometry":{"type":"LineString","coordinates":[[3.766714,51.10102],[3.766878,51.10082],[3.767052,51.10066],[3.767548,51.10019]]},"properties":{"highway":"cycleway","vertex1":17986,"vertex2":17984}},{"type":"Feature","geometry":{"type":"LineString","coordinates":[[3.766714,51.10102],[3.766628,51.101]]},"properties":{"name":"Bredestraat","highway":"tertiary","vertex1":17986,"vertex2":17985}},{"type":"Feature","geometry":{"type":"LineString","coordinates":[[3.762569,51.09756],[3.763066,51.09726],[3.763959,51.09676],[3.764624,51.09639]]},"properties":{"name":"Domien Geersstraat","highway":"residential","maxspeed":"30","vertex1":17981,"vertex2":18220}},{"type":"Feature","geometry":{"type":"LineString","coordinates":[[3.763343,51.10972],[3.763756,51.11011]]},"properties":{"name":"John Kennedylaan","oneway":"yes","highway":"trunk","maxspeed":"90","vertex1":19983,"vertex2":19988}},{"type":"Feature","geometry":{"type":"LineString","coordinates":[[3.763343,51.10972],[3.76362,51.10994]]},"properties":{"oneway":"yes","highway":"trunk_link","vertex1":19983,"vertex2":19993}},{"type":"Feature","geometry":{"type":"LineString","coordinates":[[3.763756,51.11011],[3.763708,51.11002],[3.76362,51.10994]]},"properties":{"oneway":"yes","highway":"trunk_link","vertex1":19988,"vertex2":19993}},{"type":"Feature","geometry":{"type":"LineString","coordinates":[[3.757485,51.10848],[3.75365,51.1109]]},"properties":{"name":"Imsakkerlaan","highway":"unclassified","vertex1":19997,"vertex2":19999}}]}